STARLINK-36638          
1 67594U 26018F   26050.93029862  .00189342  00000+0  96477-3 0  9992
2 67594  97.2836 115.8851 0001184 108.2119 251.9278 15.80887875  4514
STARLINK-36628          
1 67595U 26018G   26050.88401394  .00019499  00000+0  13165-3 0  9999
2 67595  97.2833 115.7939 0001297  32.7479 327.3866 15.75128127  4505
STARLINK-36629          
1 67596U 26018H   26050.89176870  .00084960  00000+0  56443-3 0  9990
2 67596  97.2829 115.7830 0002444  45.1684 314.9780 15.75203931  4506
STARLINK-36384          
1 67597U 26018J   26050.92735352  .00165652  00000+0  84651-3 0  9991
2 67597  97.2843 115.8885 0001031  85.1849 274.9537 15.80886697  4510
STARLINK-36358          
1 67598U 26018K   26050.88576578  .00106524  00000+0  70505-3 0  9996
2 67598  97.2838 115.7918 0001508  74.9661 285.1771 15.75226783  4509
STARLINK-36582          
1 67599U 26018L   26050.91670139 -.00054664  00000+0 -36791-3 0  9997
2 67599  97.2844 115.8644 0001369  70.3245 193.1233 15.75193457  4598
STARLINK-36640          
1 67600U 26018M   26050.88963857  .00192341  00000+0  12560-2 0  9998
2 67600  97.2832 115.7859 0001325  79.3250 280.8164 15.75292168  4509
STARLINK-36635          
1 67601U 26018N   26050.92451340  .00190449  00000+0  97004-3 0  9997
2 67601  97.2844 115.8919 0001005  84.5582 275.5801 15.80893370  4510
STARLINK-36631          
1 67602U 26018P   26050.92213435  .00156512  00000+0  80068-3 0  9994
2 67602  97.2847 115.8952 0001175 112.4233 247.7160 15.80886793  4513
STARLINK-36626          
1 67603U 26018Q   26050.91670139 -.00069894  00000+0 -47108-3 0  9998
2 67603  97.2848 115.8789 0001091 100.7014 196.7221 15.75213969  4487
STARLINK-36605          
1 67604U 26018R   26050.94541174  .00254705  00000+0  16519-2 0  9994
2 67604  97.2831 115.8635 0001307  75.5055 284.6356 15.75276912  4511
STARLINK-36281          
1 67605U 26018S   26050.92088622  .00232831  00000+0  11791-2 0  9990
2 67605  97.2851 115.8963 0001262  95.2758 264.8654 15.80909716  4519
