CCSDS_OMM_VERS = 2.0
CREATION_DATE  = 
ORIGINATOR     = 

OBJECT_NAME    = STARLINK-36638
OBJECT_ID      = 2026-018F
CENTER_NAME    = EARTH
REF_FRAME      = TEME
TIME_SYSTEM    = UTC
MEAN_ELEMENT_THEORY = SGP/SGP4

EPOCH          = 2026-02-19T22:19:37.800768
MEAN_MOTION    = 15.80887875
ECCENTRICITY   = .00011848
INCLINATION    = 97.2836
RA_OF_ASC_NODE = 115.8851
ARG_OF_PERICENTER = 108.2119
MEAN_ANOMALY   = 251.9278

EPHEMERIS_TYPE = 0
CLASSIFICATION_TYPE = U
NORAD_CAT_ID   = 67594
ELEMENT_SET_NO = 999
REV_AT_EPOCH   = 451
BSTAR          = .96476858E-3
MEAN_MOTION_DOT = .189342E-2
MEAN_MOTION_DDOT = 0

CCSDS_OMM_VERS = 2.0
CREATION_DATE  = 
ORIGINATOR     = 

OBJECT_NAME    = STARLINK-36628
OBJECT_ID      = 2026-018G
CENTER_NAME    = EARTH
REF_FRAME      = TEME
TIME_SYSTEM    = UTC
MEAN_ELEMENT_THEORY = SGP/SGP4

EPOCH          = 2026-02-19T21:12:58.804416
MEAN_MOTION    = 15.75128127
ECCENTRICITY   = .00012975
INCLINATION    = 97.2833
RA_OF_ASC_NODE = 115.7939
ARG_OF_PERICENTER = 32.7479
MEAN_ANOMALY   = 327.3866

EPHEMERIS_TYPE = 0
CLASSIFICATION_TYPE = U
NORAD_CAT_ID   = 67595
ELEMENT_SET_NO = 999
REV_AT_EPOCH   = 450
BSTAR          = .13165205E-3
MEAN_MOTION_DOT = .19499E-3
MEAN_MOTION_DDOT = 0

CCSDS_OMM_VERS = 2.0
CREATION_DATE  = 
ORIGINATOR     = 

OBJECT_NAME    = STARLINK-36629
OBJECT_ID      = 2026-018H
CENTER_NAME    = EARTH
REF_FRAME      = TEME
TIME_SYSTEM    = UTC
MEAN_ELEMENT_THEORY = SGP/SGP4

EPOCH          = 2026-02-19T21:24:08.815680
MEAN_MOTION    = 15.75203931
ECCENTRICITY   = .00024447
INCLINATION    = 97.2829
RA_OF_ASC_NODE = 115.7830
ARG_OF_PERICENTER = 45.1684
MEAN_ANOMALY   = 314.9780

EPHEMERIS_TYPE = 0
CLASSIFICATION_TYPE = U
NORAD_CAT_ID   = 67596
ELEMENT_SET_NO = 999
REV_AT_EPOCH   = 450
BSTAR          = .56443116E-3
MEAN_MOTION_DOT = .8496E-3
MEAN_MOTION_DDOT = 0

CCSDS_OMM_VERS = 2.0
CREATION_DATE  = 
ORIGINATOR     = 

OBJECT_NAME    = STARLINK-36384
OBJECT_ID      = 2026-018J
CENTER_NAME    = EARTH
REF_FRAME      = TEME
TIME_SYSTEM    = UTC
MEAN_ELEMENT_THEORY = SGP/SGP4

EPOCH          = 2026-02-19T22:15:23.344128
MEAN_MOTION    = 15.80886697
ECCENTRICITY   = .00010319
INCLINATION    = 97.2843
RA_OF_ASC_NODE = 115.8885
ARG_OF_PERICENTER = 85.1849
MEAN_ANOMALY   = 274.9537

EPHEMERIS_TYPE = 0
CLASSIFICATION_TYPE = U
NORAD_CAT_ID   = 67597
ELEMENT_SET_NO = 999
REV_AT_EPOCH   = 451
BSTAR          = .84650865E-3
MEAN_MOTION_DOT = .165652E-2
MEAN_MOTION_DDOT = 0

CCSDS_OMM_VERS = 2.0
CREATION_DATE  = 
ORIGINATOR     = 

OBJECT_NAME    = STARLINK-36358
OBJECT_ID      = 2026-018K
CENTER_NAME    = EARTH
REF_FRAME      = TEME
TIME_SYSTEM    = UTC
MEAN_ELEMENT_THEORY = SGP/SGP4

EPOCH          = 2026-02-19T21:15:30.163392
MEAN_MOTION    = 15.75226783
ECCENTRICITY   = .0001508
INCLINATION    = 97.2838
RA_OF_ASC_NODE = 115.7918
ARG_OF_PERICENTER = 74.9661
MEAN_ANOMALY   = 285.1771

EPHEMERIS_TYPE = 0
CLASSIFICATION_TYPE = U
NORAD_CAT_ID   = 67598
ELEMENT_SET_NO = 999
REV_AT_EPOCH   = 450
BSTAR          = .70504828E-3
MEAN_MOTION_DOT = .106524E-2
MEAN_MOTION_DDOT = 0

CCSDS_OMM_VERS = 2.0
CREATION_DATE  = 
ORIGINATOR     = 

OBJECT_NAME    = STARLINK-36582
OBJECT_ID      = 2026-018L
CENTER_NAME    = EARTH
REF_FRAME      = TEME
TIME_SYSTEM    = UTC
MEAN_ELEMENT_THEORY = SGP/SGP4

EPOCH          = 2026-02-19T22:00:03.000096
MEAN_MOTION    = 15.75193457
ECCENTRICITY   = .00013694
INCLINATION    = 97.2844
RA_OF_ASC_NODE = 115.8644
ARG_OF_PERICENTER = 70.3245
MEAN_ANOMALY   = 193.1233

EPHEMERIS_TYPE = 0
CLASSIFICATION_TYPE = U
NORAD_CAT_ID   = 67599
ELEMENT_SET_NO = 999
REV_AT_EPOCH   = 459
BSTAR          = -.36790715E-3
MEAN_MOTION_DOT = -.54664E-3
MEAN_MOTION_DDOT = 0

CCSDS_OMM_VERS = 2.0
CREATION_DATE  = 
ORIGINATOR     = 

OBJECT_NAME    = STARLINK-36640
OBJECT_ID      = 2026-018M
CENTER_NAME    = EARTH
REF_FRAME      = TEME
TIME_SYSTEM    = UTC
MEAN_ELEMENT_THEORY = SGP/SGP4

EPOCH          = 2026-02-19T21:21:04.772448
MEAN_MOTION    = 15.75292168
ECCENTRICITY   = .00013253
INCLINATION    = 97.2832
RA_OF_ASC_NODE = 115.7859
ARG_OF_PERICENTER = 79.3250
MEAN_ANOMALY   = 280.8164

EPHEMERIS_TYPE = 0
CLASSIFICATION_TYPE = U
NORAD_CAT_ID   = 67600
ELEMENT_SET_NO = 999
REV_AT_EPOCH   = 450
BSTAR          = .12560175E-2
MEAN_MOTION_DOT = .192341E-2
MEAN_MOTION_DDOT = 0

CCSDS_OMM_VERS = 2.0
CREATION_DATE  = 
ORIGINATOR     = 

OBJECT_NAME    = STARLINK-36635
OBJECT_ID      = 2026-018N
CENTER_NAME    = EARTH
REF_FRAME      = TEME
TIME_SYSTEM    = UTC
MEAN_ELEMENT_THEORY = SGP/SGP4

EPOCH          = 2026-02-19T22:11:17.957760
MEAN_MOTION    = 15.80893370
ECCENTRICITY   = .00010057
INCLINATION    = 97.2844
RA_OF_ASC_NODE = 115.8919
ARG_OF_PERICENTER = 84.5582
MEAN_ANOMALY   = 275.5801

EPHEMERIS_TYPE = 0
CLASSIFICATION_TYPE = U
NORAD_CAT_ID   = 67601
ELEMENT_SET_NO = 999
REV_AT_EPOCH   = 451
BSTAR          = .97004079E-3
MEAN_MOTION_DOT = .190449E-2
MEAN_MOTION_DDOT = 0

CCSDS_OMM_VERS = 2.0
CREATION_DATE  = 
ORIGINATOR     = 

OBJECT_NAME    = STARLINK-36631
OBJECT_ID      = 2026-018P
CENTER_NAME    = EARTH
REF_FRAME      = TEME
TIME_SYSTEM    = UTC
MEAN_ELEMENT_THEORY = SGP/SGP4

EPOCH          = 2026-02-19T22:07:52.407840
MEAN_MOTION    = 15.80886793
ECCENTRICITY   = .00011751
INCLINATION    = 97.2847
RA_OF_ASC_NODE = 115.8952
ARG_OF_PERICENTER = 112.4233
MEAN_ANOMALY   = 247.7160

EPHEMERIS_TYPE = 0
CLASSIFICATION_TYPE = U
NORAD_CAT_ID   = 67602
ELEMENT_SET_NO = 999
REV_AT_EPOCH   = 451
BSTAR          = .80067795E-3
MEAN_MOTION_DOT = .156512E-2
MEAN_MOTION_DDOT = 0

CCSDS_OMM_VERS = 2.0
CREATION_DATE  = 
ORIGINATOR     = 

OBJECT_NAME    = STARLINK-36626
OBJECT_ID      = 2026-018Q
CENTER_NAME    = EARTH
REF_FRAME      = TEME
TIME_SYSTEM    = UTC
MEAN_ELEMENT_THEORY = SGP/SGP4

EPOCH          = 2026-02-19T22:00:03.000096
MEAN_MOTION    = 15.75213969
ECCENTRICITY   = .0001091
INCLINATION    = 97.2848
RA_OF_ASC_NODE = 115.8789
ARG_OF_PERICENTER = 100.7014
MEAN_ANOMALY   = 196.7221

EPHEMERIS_TYPE = 0
CLASSIFICATION_TYPE = U
NORAD_CAT_ID   = 67603
ELEMENT_SET_NO = 999
REV_AT_EPOCH   = 448
BSTAR          = -.47108424E-3
MEAN_MOTION_DOT = -.69894E-3
MEAN_MOTION_DDOT = 0

CCSDS_OMM_VERS = 2.0
CREATION_DATE  = 
ORIGINATOR     = 

OBJECT_NAME    = STARLINK-36605
OBJECT_ID      = 2026-018R
CENTER_NAME    = EARTH
REF_FRAME      = TEME
TIME_SYSTEM    = UTC
MEAN_ELEMENT_THEORY = SGP/SGP4

EPOCH          = 2026-02-19T22:41:23.574336
MEAN_MOTION    = 15.75276912
ECCENTRICITY   = .00013075
INCLINATION    = 97.2831
RA_OF_ASC_NODE = 115.8635
ARG_OF_PERICENTER = 75.5055
MEAN_ANOMALY   = 284.6356

EPHEMERIS_TYPE = 0
CLASSIFICATION_TYPE = U
NORAD_CAT_ID   = 67604
ELEMENT_SET_NO = 999
REV_AT_EPOCH   = 451
BSTAR          = .1651875E-2
MEAN_MOTION_DOT = .254705E-2
MEAN_MOTION_DDOT = 0

CCSDS_OMM_VERS = 2.0
CREATION_DATE  = 
ORIGINATOR     = 

OBJECT_NAME    = STARLINK-36281
OBJECT_ID      = 2026-018S
CENTER_NAME    = EARTH
REF_FRAME      = TEME
TIME_SYSTEM    = UTC
MEAN_ELEMENT_THEORY = SGP/SGP4

EPOCH          = 2026-02-19T22:06:04.569408
MEAN_MOTION    = 15.80909716
ECCENTRICITY   = .00012621
INCLINATION    = 97.2851
RA_OF_ASC_NODE = 115.8963
ARG_OF_PERICENTER = 95.2758
MEAN_ANOMALY   = 264.8654

EPHEMERIS_TYPE = 0
CLASSIFICATION_TYPE = U
NORAD_CAT_ID   = 67605
ELEMENT_SET_NO = 999
REV_AT_EPOCH   = 451
BSTAR          = .11790724E-2
MEAN_MOTION_DOT = .232831E-2
MEAN_MOTION_DDOT = 0

